ONEWEB-0092             
1 45437U 20020P   25231.95162784  .00000734  00000+0  20347-2 0  9993
2 45437  87.8788  81.0911 0001767  92.2373 267.8957 13.11418009263304
ONEWEB-0085             
1 45438U 20020Q   25231.60463220 -.00000454  00000+0 -13274-2 0  9997
2 45438  87.8781  81.1748 0001714  89.8545 270.2779 13.10856688263142
ONEWEB-0096             
1 45439U 20020R   25232.29495760 -.00000458  00000+0 -13291-2 0  9991
2 45439  87.8793  81.0034 0001875  80.3662 279.7678 13.11415571263232
ONEWEB-0037             
1 45440U 20020S   25232.12287186  .00000344  00000+0  93591-3 0  9990
2 45440  87.8796  81.0028 0001717  88.0206 272.1118 13.11416143263247
ONEWEB-0042             
1 45441U 20020T   25232.28463414 -.00000071  00000+0 -23611-3 0  9993
2 45441  87.8785  81.0135 0001820  87.5239 272.6098 13.11413288263238
ONEWEB-0098             
1 45442U 20020U   25232.28055227  .00000177  00000+0  46287-3 0  9992
2 45442  87.8785  81.0246 0001480  78.8451 281.2844 13.11415260263207
ONEWEB-0055             
1 45443U 20020V   25231.65323058  .00000534  00000+0  14702-2 0  9996
2 45443  87.8785  81.1514 0001680  82.8509 277.2810 13.11415149263099
ONEWEB-0093             
1 45444U 20020W   25231.62877091 -.00000037  00000+0 -14142-3 0  9994
2 45444  87.8788  81.1416 0002203  85.6052 274.5327 13.11419426263152
ONEWEB-0029             
1 45445U 20020X   25231.94994225  .00000439  00000+0  12035-2 0  9991
2 45445  87.8788  81.0895 0001860  81.8960 278.2379 13.11416168263177
ONEWEB-0068             
1 45446U 20020Y   25231.62847915 -.00000081  00000+0 -26365-3 0  9997
2 45446  87.8790  81.1425 0001895  81.0280 279.1062 13.11417050263075
ONEWEB-0046             
1 45447U 20020Z   25232.07792906 -.00000540  00000+0 -15589-2 0  9992
2 45447  87.8788  81.0628 0001942  89.0560 271.0790 13.11417252263151
ONEWEB-0063             
1 45448U 20020AA  25232.10677019  .00000616  00000+0  17022-2 0  9990
2 45448  87.8787  81.0552 0001754  91.7415 268.3914 13.11417055263234
ONEWEB-0019             
1 45449U 20020AB  25231.62269970 -.00000258  00000+0 -76445-3 0  9999
2 45449  87.8784  81.1692 0001723  81.2598 278.8725 13.11417919263011
ONEWEB-0094             
1 45450U 20020AC  25232.26858067 -.00000001  00000+0 -36098-4 0  9990
2 45450  87.9026  65.7100 0001847  88.6304 271.5040 13.17889977266687
ONEWEB-0087             
1 45451U 20020AD  25232.11677945  .00000201  00000+0  53094-3 0  9993
2 45451  87.8781  81.0028 0001960  81.8624 278.2726 13.11415314263137
ONEWEB-0082             
1 45452U 20020AE  25231.65578324  .00000505  00000+0  13883-2 0  9991
2 45452  87.8787  81.1203 0001782  79.1744 280.9585 13.11415018263151
ONEWEB-0050             
1 45453U 20020AF  25231.67944628  .00001790  00000+0  17883-3 0  9990
2 45453  87.9951 279.2281 0002643  40.1833 319.9591 14.90963057295497
