[{"OBJECT_NAME":"ONEWEB-0092","OBJECT_ID":"2020-020P","EPOCH":"2025-08-19T22:50:20.645376","MEAN_MOTION":13.11418009,"ECCENTRICITY":0.0001767,"INCLINATION":87.8788,"RA_OF_ASC_NODE":81.0911,"ARG_OF_PERICENTER":92.2373,"MEAN_ANOMALY":267.8957,"EPHEMERIS_TYPE":0,"CLASSIFICATION_TYPE":"U","NORAD_CAT_ID":45437,"ELEMENT_SET_NO":999,"REV_AT_EPOCH":26330,"BSTAR":0.0020347,"MEAN_MOTION_DOT":7.34e-6,"MEAN_MOTION_DDOT":0},{"OBJECT_NAME":"ONEWEB-0085","OBJECT_ID":"2020-020Q","EPOCH":"2025-08-19T14:30:40.222080","MEAN_MOTION":13.10856688,"ECCENTRICITY":0.0001714,"INCLINATION":87.8781,"RA_OF_ASC_NODE":81.1748,"ARG_OF_PERICENTER":89.8545,"MEAN_ANOMALY":270.2779,"EPHEMERIS_TYPE":0,"CLASSIFICATION_TYPE":"U","NORAD_CAT_ID":45438,"ELEMENT_SET_NO":999,"REV_AT_EPOCH":26314,"BSTAR":-0.0013274,"MEAN_MOTION_DOT":-4.54e-6,"MEAN_MOTION_DDOT":0},{"OBJECT_NAME":"ONEWEB-0096","OBJECT_ID":"2020-020R","EPOCH":"2025-08-20T07:04:44.336640","MEAN_MOTION":13.11415571,"ECCENTRICITY":0.0001875,"INCLINATION":87.8793,"RA_OF_ASC_NODE":81.0034,"ARG_OF_PERICENTER":80.3662,"MEAN_ANOMALY":279.7678,"EPHEMERIS_TYPE":0,"CLASSIFICATION_TYPE":"U","NORAD_CAT_ID":45439,"ELEMENT_SET_NO":999,"REV_AT_EPOCH":26323,"BSTAR":-0.0013291,"MEAN_MOTION_DOT":-4.58e-6,"MEAN_MOTION_DDOT":0},{"OBJECT_NAME":"ONEWEB-0037","OBJECT_ID":"2020-020S","EPOCH":"2025-08-20T02:56:56.128704","MEAN_MOTION":13.11416143,"ECCENTRICITY":0.0001717,"INCLINATION":87.8796,"RA_OF_ASC_NODE":81.0028,"ARG_OF_PERICENTER":88.0206,"MEAN_ANOMALY":272.1118,"EPHEMERIS_TYPE":0,"CLASSIFICATION_TYPE":"U","NORAD_CAT_ID":45440,"ELEMENT_SET_NO":999,"REV_AT_EPOCH":26324,"BSTAR":0.00093591,"MEAN_MOTION_DOT":3.44e-6,"MEAN_MOTION_DDOT":0},{"OBJECT_NAME":"ONEWEB-0042","OBJECT_ID":"2020-020T","EPOCH":"2025-08-20T06:49:52.389696","MEAN_MOTION":13.11413288,"ECCENTRICITY":0.000182,"INCLINATION":87.8785,"RA_OF_ASC_NODE":81.0135,"ARG_OF_PERICENTER":87.5239,"MEAN_ANOMALY":272.6098,"EPHEMERIS_TYPE":0,"CLASSIFICATION_TYPE":"U","NORAD_CAT_ID":45441,"ELEMENT_SET_NO":999,"REV_AT_EPOCH":26323,"BSTAR":-0.00023611,"MEAN_MOTION_DOT":-7.1e-7,"MEAN_MOTION_DDOT":0},{"OBJECT_NAME":"ONEWEB-0098","OBJECT_ID":"2020-020U","EPOCH":"2025-08-20T06:43:59.716128","MEAN_MOTION":13.1141526,"ECCENTRICITY":0.000148,"INCLINATION":87.8785,"RA_OF_ASC_NODE":81.0246,"ARG_OF_PERICENTER":78.8451,"MEAN_ANOMALY":281.2844,"EPHEMERIS_TYPE":0,"CLASSIFICATION_TYPE":"U","NORAD_CAT_ID":45442,"ELEMENT_SET_NO":999,"REV_AT_EPOCH":26320,"BSTAR":0.00046287,"MEAN_MOTION_DOT":1.77e-6,"MEAN_MOTION_DDOT":0},{"OBJECT_NAME":"ONEWEB-0055","OBJECT_ID":"2020-020V","EPOCH":"2025-08-19T15:40:39.122112","MEAN_MOTION":13.11415149,"ECCENTRICITY":0.000168,"INCLINATION":87.8785,"RA_OF_ASC_NODE":81.1514,"ARG_OF_PERICENTER":82.8509,"MEAN_ANOMALY":277.281,"EPHEMERIS_TYPE":0,"CLASSIFICATION_TYPE":"U","NORAD_CAT_ID":45443,"ELEMENT_SET_NO":999,"REV_AT_EPOCH":26309,"BSTAR":0.0014702,"MEAN_MOTION_DOT":5.34e-6,"MEAN_MOTION_DDOT":0},{"OBJECT_NAME":"ONEWEB-0093","OBJECT_ID":"2020-020W","EPOCH":"2025-08-19T15:05:25.806624","MEAN_MOTION":13.11419426,"ECCENTRICITY":0.0002203,"INCLINATION":87.8788,"RA_OF_ASC_NODE":81.1416,"ARG_OF_PERICENTER":85.6052,"MEAN_ANOMALY":274.5327,"EPHEMERIS_TYPE":0,"CLASSIFICATION_TYPE":"U","NORAD_CAT_ID":45444,"ELEMENT_SET_NO":999,"REV_AT_EPOCH":26315,"BSTAR":-0.00014142,"MEAN_MOTION_DOT":-3.7e-7,"MEAN_MOTION_DDOT":0},{"OBJECT_NAME":"ONEWEB-0029","OBJECT_ID":"2020-020X","EPOCH":"2025-08-19T22:47:55.010400","MEAN_MOTION":13.11416168,"ECCENTRICITY":0.000186,"INCLINATION":87.8788,"RA_OF_ASC_NODE":81.0895,"ARG_OF_PERICENTER":81.896,"MEAN_ANOMALY":278.2379,"EPHEMERIS_TYPE":0,"CLASSIFICATION_TYPE":"U","NORAD_CAT_ID":45445,"ELEMENT_SET_NO":999,"REV_AT_EPOCH":26317,"BSTAR":0.0012035,"MEAN_MOTION_DOT":4.39e-6,"MEAN_MOTION_DDOT":0},{"OBJECT_NAME":"ONEWEB-0068","OBJECT_ID":"2020-020Y","EPOCH":"2025-08-19T15:05:00.598560","MEAN_MOTION":13.1141705,"ECCENTRICITY":0.0001895,"INCLINATION":87.879,"RA_OF_ASC_NODE":81.1425,"ARG_OF_PERICENTER":81.028,"MEAN_ANOMALY":279.1062,"EPHEMERIS_TYPE":0,"CLASSIFICATION_TYPE":"U","NORAD_CAT_ID":45446,"ELEMENT_SET_NO":999,"REV_AT_EPOCH":26307,"BSTAR":-0.00026365,"MEAN_MOTION_DOT":-8.1e-7,"MEAN_MOTION_DDOT":0},{"OBJECT_NAME":"ONEWEB-0046","OBJECT_ID":"2020-020Z","EPOCH":"2025-08-20T01:52:13.070784","MEAN_MOTION":13.11417252,"ECCENTRICITY":0.0001942,"INCLINATION":87.8788,"RA_OF_ASC_NODE":81.0628,"ARG_OF_PERICENTER":89.056,"MEAN_ANOMALY":271.079,"EPHEMERIS_TYPE":0,"CLASSIFICATION_TYPE":"U","NORAD_CAT_ID":45447,"ELEMENT_SET_NO":999,"REV_AT_EPOCH":26315,"BSTAR":-0.0015589,"MEAN_MOTION_DOT":-5.4e-6,"MEAN_MOTION_DDOT":0},{"OBJECT_NAME":"ONEWEB-0063","OBJECT_ID":"2020-020AA","EPOCH":"2025-08-20T02:33:44.944416","MEAN_MOTION":13.11417055,"ECCENTRICITY":0.0001754,"INCLINATION":87.8787,"RA_OF_ASC_NODE":81.0552,"ARG_OF_PERICENTER":91.7415,"MEAN_ANOMALY":268.3914,"EPHEMERIS_TYPE":0,"CLASSIFICATION_TYPE":"U","NORAD_CAT_ID":45448,"ELEMENT_SET_NO":999,"REV_AT_EPOCH":26323,"BSTAR":0.0017022,"MEAN_MOTION_DOT":6.16e-6,"MEAN_MOTION_DDOT":0},{"OBJECT_NAME":"ONEWEB-0019","OBJECT_ID":"2020-020AB","EPOCH":"2025-08-19T14:56:41.254080","MEAN_MOTION":13.11417919,"ECCENTRICITY":0.0001723,"INCLINATION":87.8784,"RA_OF_ASC_NODE":81.1692,"ARG_OF_PERICENTER":81.2598,"MEAN_ANOMALY":278.8725,"EPHEMERIS_TYPE":0,"CLASSIFICATION_TYPE":"U","NORAD_CAT_ID":45449,"ELEMENT_SET_NO":999,"REV_AT_EPOCH":26301,"BSTAR":-0.00076445,"MEAN_MOTION_DOT":-2.58e-6,"MEAN_MOTION_DDOT":0},{"OBJECT_NAME":"ONEWEB-0094","OBJECT_ID":"2020-020AC","EPOCH":"2025-08-20T06:26:45.369888","MEAN_MOTION":13.17889977,"ECCENTRICITY":0.0001847,"INCLINATION":87.9026,"RA_OF_ASC_NODE":65.71,"ARG_OF_PERICENTER":88.6304,"MEAN_ANOMALY":271.504,"EPHEMERIS_TYPE":0,"CLASSIFICATION_TYPE":"U","NORAD_CAT_ID":45450,"ELEMENT_SET_NO":999,"REV_AT_EPOCH":26668,"BSTAR":-3.6098e-5,"MEAN_MOTION_DOT":-1.0e-8,"MEAN_MOTION_DDOT":0},{"OBJECT_NAME":"ONEWEB-0087","OBJECT_ID":"2020-020AD","EPOCH":"2025-08-20T02:48:09.744480","MEAN_MOTION":13.11415314,"ECCENTRICITY":0.000196,"INCLINATION":87.8781,"RA_OF_ASC_NODE":81.0028,"ARG_OF_PERICENTER":81.8624,"MEAN_ANOMALY":278.2726,"EPHEMERIS_TYPE":0,"CLASSIFICATION_TYPE":"U","NORAD_CAT_ID":45451,"ELEMENT_SET_NO":999,"REV_AT_EPOCH":26313,"BSTAR":0.00053094,"MEAN_MOTION_DOT":2.01e-6,"MEAN_MOTION_DDOT":0},{"OBJECT_NAME":"ONEWEB-0082","OBJECT_ID":"2020-020AE","EPOCH":"2025-08-19T15:44:19.671936","MEAN_MOTION":13.11415018,"ECCENTRICITY":0.0001782,"INCLINATION":87.8787,"RA_OF_ASC_NODE":81.1203,"ARG_OF_PERICENTER":79.1744,"MEAN_ANOMALY":280.9585,"EPHEMERIS_TYPE":0,"CLASSIFICATION_TYPE":"U","NORAD_CAT_ID":45452,"ELEMENT_SET_NO":999,"REV_AT_EPOCH":26315,"BSTAR":0.0013883,"MEAN_MOTION_DOT":5.05e-6,"MEAN_MOTION_DDOT":0},{"OBJECT_NAME":"ONEWEB-0050","OBJECT_ID":"2020-020AF","EPOCH":"2025-08-19T16:18:24.158592","MEAN_MOTION":14.90963057,"ECCENTRICITY":0.0002643,"INCLINATION":87.9951,"RA_OF_ASC_NODE":279.2281,"ARG_OF_PERICENTER":40.1833,"MEAN_ANOMALY":319.9591,"EPHEMERIS_TYPE":0,"CLASSIFICATION_TYPE":"U","NORAD_CAT_ID":45453,"ELEMENT_SET_NO":999,"REV_AT_EPOCH":29549,"BSTAR":0.00017883,"MEAN_MOTION_DOT":1.79e-5,"MEAN_MOTION_DDOT":0}]
